[{"OBJECT_NAME":"IRIDIUM 107","OBJECT_ID":"2017-061F","EPOCH":"2026-03-09T22:26:14.574624","MEAN_MOTION":14.34217551,"ECCENTRICITY":0.00017516,"INCLINATION":86.3913,"RA_OF_ASC_NODE":66.7602,"ARG_OF_PERICENTER":87.4442,"MEAN_ANOMALY":272.6954,"EPHEMERIS_TYPE":0,"CLASSIFICATION_TYPE":"U","NORAD_CAT_ID":42960,"ELEMENT_SET_NO":999,"REV_AT_EPOCH":44059,"BSTAR":-3.536384e-6,"MEAN_MOTION_DOT":1.0e-7,"MEAN_MOTION_DDOT":0},{"OBJECT_NAME":"CZ-6A DEB","OBJECT_ID":"2022-151ABM","EPOCH":"2026-03-09T10:24:11.549664","MEAN_MOTION":14.23450808,"ECCENTRICITY":0.00463222,"INCLINATION":98.8138,"RA_OF_ASC_NODE":76.1964,"ARG_OF_PERICENTER":225.0299,"MEAN_ANOMALY":134.712,"EPHEMERIS_TYPE":0,"CLASSIFICATION_TYPE":"U","NORAD_CAT_ID":56245,"ELEMENT_SET_NO":999,"REV_AT_EPOCH":15768,"BSTAR":0.002665235,"MEAN_MOTION_DOT":6.081e-5,"MEAN_MOTION_DDOT":0}]
